{
  "type": "FeatureCollection",
  "features": [
    {
      "type": "Feature",
      "properties": {
        "norad_id": 64202,
        "name": "GPS BIII-8  (PRN 21)",
        "group": "gnss",
        "lat": 5.299385202624079,
        "lon": -145.55937589520852,
        "alt_km": 20193.965397804164,
        "timestamp": "2025-12-25T07:41:09.967566+00:00",
        "meta_object_name": "GPS BIII-8  (PRN 21)",
        "meta_object_id": "2025-116A",
        "meta_epoch": "2025-12-24T05:06:23.734944",
        "meta_mean_motion": 2.0055752,
        "meta_eccentricity": 0.00059658,
        "meta_inclination": 55.1137,
        "meta_ra_of_asc_node": 38.1782,
        "meta_arg_of_pericenter": 310.8419,
        "meta_mean_anomaly": 143.1183,
        "meta_ephemeris_type": 0,
        "meta_classification_type": "U",
        "meta_norad_cat_id": 64202,
        "meta_element_set_no": 999,
        "meta_rev_at_epoch": 436,
        "meta_bstar": 0,
        "meta_mean_motion_dot": -5e-07,
        "meta_mean_motion_ddot": 0,
        "tle_line1": "1 64202U 25116A   25358.21277471 -.00000050  00000+0  00000+0 0  9997",
        "tle_line2": "2 64202  55.1137  38.1782 0005965 310.8419 143.1183  2.00557520  4368"
      },
      "geometry": {
        "type": "Point",
        "coordinates": [
          -145.55937589520852,
          5.299385202624079
        ]
      }
    },
    {
      "type": "Feature",
      "properties": {
        "norad_id": 65590,
        "name": "COSMOS 2596 (708K)",
        "group": "gnss",
        "lat": -27.76813850126,
        "lon": -53.362574003871835,
        "alt_km": 19100.363721578484,
        "timestamp": "2025-12-25T07:41:09.967577+00:00",
        "meta_object_name": "COSMOS 2596 (708K)",
        "meta_object_id": "2025-206B",
        "meta_epoch": "2025-12-24T10:04:00.075648",
        "meta_mean_motion": 2.13100293,
        "meta_eccentricity": 0.00140917,
        "meta_inclination": 64.738,
        "meta_ra_of_asc_node": 321.0695,
        "meta_arg_of_pericenter": 307.5813,
        "meta_mean_anomaly": 50.2886,
        "meta_ephemeris_type": 0,
        "meta_classification_type": "U",
        "meta_norad_cat_id": 65590,
        "meta_element_set_no": 999,
        "meta_rev_at_epoch": 218,
        "meta_bstar": 0,
        "meta_mean_motion_dot": -3.5e-07,
        "meta_mean_motion_ddot": 0,
        "tle_line1": "1 65590U 25206B   25358.41944532 -.00000035  00000+0  00000+0 0  9992",
        "tle_line2": "2 65590  64.7380 321.0695 0014091 307.5813  50.2886  2.13100293  2184"
      },
      "geometry": {
        "type": "Point",
        "coordinates": [
          -53.362574003871835,
          -27.76813850126
        ]
      }
    },
    {
      "type": "Feature",
      "properties": {
        "norad_id": 67160,
        "name": "GALILEO A",
        "group": "gnss",
        "lat": 27.2702934638203,
        "lon": -94.72794668985166,
        "alt_km": 22941.48757350117,
        "timestamp": "2025-12-25T07:41:09.967589+00:00",
        "meta_object_name": "GALILEO A",
        "meta_object_id": "2025-302A",
        "meta_epoch": "2025-12-18T03:30:19.486368",
        "meta_mean_motion": 1.72906186,
        "meta_eccentricity": 0.00084238,
        "meta_inclination": 54.2406,
        "meta_ra_of_asc_node": 107.2544,
        "meta_arg_of_pericenter": 237.6458,
        "meta_mean_anomaly": 122.2317,
        "meta_ephemeris_type": 0,
        "meta_classification_type": "U",
        "meta_norad_cat_id": 67160,
        "meta_element_set_no": 999,
        "meta_rev_at_epoch": 2,
        "meta_bstar": 0,
        "meta_mean_motion_dot": -7e-08,
        "meta_mean_motion_ddot": 0,
        "tle_line1": "1 67160U 25302A   25352.14605887 -.00000007  00000+0  00000+0 0  9994",
        "tle_line2": "2 67160  54.2406 107.2544 0008423 237.6458 122.2317  1.72906186    28"
      },
      "geometry": {
        "type": "Point",
        "coordinates": [
          -94.72794668985166,
          27.2702934638203
        ]
      }
    },
    {
      "type": "Feature",
      "properties": {
        "norad_id": 67161,
        "name": "GALILEO B",
        "group": "gnss",
        "lat": 25.784810068594123,
        "lon": -93.33714899005815,
        "alt_km": 22937.373795678654,
        "timestamp": "2025-12-25T07:41:09.967612+00:00",
        "meta_object_name": "GALILEO B",
        "meta_object_id": "2025-302B",
        "meta_epoch": "2025-12-19T07:14:53.290752",
        "meta_mean_motion": 1.72972192,
        "meta_eccentricity": 0.00045866,
        "meta_inclination": 54.2272,
        "meta_ra_of_asc_node": 107.1916,
        "meta_arg_of_pericenter": 255.0301,
        "meta_mean_anomaly": 104.8802,
        "meta_ephemeris_type": 0,
        "meta_classification_type": "U",
        "meta_norad_cat_id": 67161,
        "meta_element_set_no": 999,
        "meta_rev_at_epoch": 5,
        "meta_bstar": 0,
        "meta_mean_motion_dot": -5e-08,
        "meta_mean_motion_ddot": 0,
        "tle_line1": "1 67161U 25302B   25353.30200568 -.00000005  00000+0  00000+0 0  9999",
        "tle_line2": "2 67161  54.2272 107.1916 0004586 255.0301 104.8802  1.72972192    57"
      },
      "geometry": {
        "type": "Point",
        "coordinates": [
          -93.33714899005815,
          25.784810068594123
        ]
      }
    }
  ]
}